CCSDS_OMM_VERS = 2.0
CREATION_DATE  = 
ORIGINATOR     = 

OBJECT_NAME    = 2026-028A
OBJECT_ID      = 2026-028A
CENTER_NAME    = EARTH
REF_FRAME      = TEME
TIME_SYSTEM    = UTC
MEAN_ELEMENT_THEORY = SGP/SGP4

EPOCH          = 2026-03-03T07:37:03.606240
MEAN_MOTION    = 0.99524202
ECCENTRICITY   = .0042007
INCLINATION    = 0.4855
RA_OF_ASC_NODE = 289.4925
ARG_OF_PERICENTER = 229.3765
MEAN_ANOMALY   = 201.2691

EPHEMERIS_TYPE = 0
CLASSIFICATION_TYPE = U
NORAD_CAT_ID   = 67756
ELEMENT_SET_NO = 999
REV_AT_EPOCH   = 19
BSTAR          = 0
MEAN_MOTION_DOT = -.45E-6
MEAN_MOTION_DDOT = 0

CCSDS_OMM_VERS = 2.0
CREATION_DATE  = 
ORIGINATOR     = 

OBJECT_NAME    = KUIPER-00159
OBJECT_ID      = 2026-030A
CENTER_NAME    = EARTH
REF_FRAME      = TEME
TIME_SYSTEM    = UTC
MEAN_ELEMENT_THEORY = SGP/SGP4

EPOCH          = 2026-03-03T12:21:19.373184
MEAN_MOTION    = 15.35428767
ECCENTRICITY   = .0004306
INCLINATION    = 51.8839
RA_OF_ASC_NODE = 248.9383
ARG_OF_PERICENTER = 29.6067
MEAN_ANOMALY   = 330.5162

EPHEMERIS_TYPE = 0
CLASSIFICATION_TYPE = U
NORAD_CAT_ID   = 67764
ELEMENT_SET_NO = 999
REV_AT_EPOCH   = 414
BSTAR          = .69703E-3
MEAN_MOTION_DOT = .24059E-3
MEAN_MOTION_DDOT = 0

CCSDS_OMM_VERS = 2.0
CREATION_DATE  = 
ORIGINATOR     = 

OBJECT_NAME    = KUIPER-00160
OBJECT_ID      = 2026-030B
CENTER_NAME    = EARTH
REF_FRAME      = TEME
TIME_SYSTEM    = UTC
MEAN_ELEMENT_THEORY = SGP/SGP4

EPOCH          = 2026-03-03T12:22:46.192224
MEAN_MOTION    = 15.35300590
ECCENTRICITY   = .000452
INCLINATION    = 51.8806
RA_OF_ASC_NODE = 248.9386
ARG_OF_PERICENTER = 42.7206
MEAN_ANOMALY   = 317.4130

EPHEMERIS_TYPE = 0
CLASSIFICATION_TYPE = U
NORAD_CAT_ID   = 67765
ELEMENT_SET_NO = 999
REV_AT_EPOCH   = 414
BSTAR          = .60209E-3
MEAN_MOTION_DOT = .20635E-3
MEAN_MOTION_DDOT = 0

CCSDS_OMM_VERS = 2.0
CREATION_DATE  = 
ORIGINATOR     = 

OBJECT_NAME    = KUIPER-00177
OBJECT_ID      = 2026-030C
CENTER_NAME    = EARTH
REF_FRAME      = TEME
TIME_SYSTEM    = UTC
MEAN_ELEMENT_THEORY = SGP/SGP4

EPOCH          = 2026-03-03T12:06:52.470144
MEAN_MOTION    = 15.36212918
ECCENTRICITY   = .0000658
INCLINATION    = 51.8827
RA_OF_ASC_NODE = 248.8708
ARG_OF_PERICENTER = 16.1023
MEAN_ANOMALY   = 343.9984

EPHEMERIS_TYPE = 0
CLASSIFICATION_TYPE = U
NORAD_CAT_ID   = 67766
ELEMENT_SET_NO = 999
REV_AT_EPOCH   = 414
BSTAR          = .72217E-3
MEAN_MOTION_DOT = .25583E-3
MEAN_MOTION_DDOT = 0

CCSDS_OMM_VERS = 2.0
CREATION_DATE  = 
ORIGINATOR     = 

OBJECT_NAME    = KUIPER-00178
OBJECT_ID      = 2026-030D
CENTER_NAME    = EARTH
REF_FRAME      = TEME
TIME_SYSTEM    = UTC
MEAN_ELEMENT_THEORY = SGP/SGP4

EPOCH          = 2026-03-03T12:25:08.944896
MEAN_MOTION    = 15.35222254
ECCENTRICITY   = .0005767
INCLINATION    = 51.8825
RA_OF_ASC_NODE = 248.9532
ARG_OF_PERICENTER = 29.7944
MEAN_ANOMALY   = 330.3369

EPHEMERIS_TYPE = 0
CLASSIFICATION_TYPE = U
NORAD_CAT_ID   = 67767
ELEMENT_SET_NO = 999
REV_AT_EPOCH   = 414
BSTAR          = .74988E-3
MEAN_MOTION_DOT = .25751E-3
MEAN_MOTION_DDOT = 0

CCSDS_OMM_VERS = 2.0
CREATION_DATE  = 
ORIGINATOR     = 

OBJECT_NAME    = KUIPER-00180
OBJECT_ID      = 2026-030E
CENTER_NAME    = EARTH
REF_FRAME      = TEME
TIME_SYSTEM    = UTC
MEAN_ELEMENT_THEORY = SGP/SGP4

EPOCH          = 2026-03-03T11:29:35.967264
MEAN_MOTION    = 15.32166873
ECCENTRICITY   = .0014417
INCLINATION    = 51.8796
RA_OF_ASC_NODE = 249.4303
ARG_OF_PERICENTER = 51.6206
MEAN_ANOMALY   = 308.6071

EPHEMERIS_TYPE = 0
CLASSIFICATION_TYPE = U
NORAD_CAT_ID   = 67768
ELEMENT_SET_NO = 999
REV_AT_EPOCH   = 413
BSTAR          = -.80354E-4
MEAN_MOTION_DOT = -.2918E-4
MEAN_MOTION_DDOT = 0

CCSDS_OMM_VERS = 2.0
CREATION_DATE  = 
ORIGINATOR     = 

OBJECT_NAME    = KUIPER-00197
OBJECT_ID      = 2026-030F
CENTER_NAME    = EARTH
REF_FRAME      = TEME
TIME_SYSTEM    = UTC
MEAN_ELEMENT_THEORY = SGP/SGP4

EPOCH          = 2026-03-03T12:09:44.525376
MEAN_MOTION    = 15.36098638
ECCENTRICITY   = .0001199
INCLINATION    = 51.8827
RA_OF_ASC_NODE = 248.8849
ARG_OF_PERICENTER = 58.0066
MEAN_ANOMALY   = 302.1037

EPHEMERIS_TYPE = 0
CLASSIFICATION_TYPE = U
NORAD_CAT_ID   = 67769
ELEMENT_SET_NO = 999
REV_AT_EPOCH   = 414
BSTAR          = .10186E-2
MEAN_MOTION_DOT = .36161E-3
MEAN_MOTION_DDOT = 0

CCSDS_OMM_VERS = 2.0
CREATION_DATE  = 
ORIGINATOR     = 

OBJECT_NAME    = KUIPER-00198
OBJECT_ID      = 2026-030G
CENTER_NAME    = EARTH
REF_FRAME      = TEME
TIME_SYSTEM    = UTC
MEAN_ELEMENT_THEORY = SGP/SGP4

EPOCH          = 2026-03-03T12:16:06.600864
MEAN_MOTION    = 15.35731151
ECCENTRICITY   = .0002835
INCLINATION    = 51.8805
RA_OF_ASC_NODE = 248.9083
ARG_OF_PERICENTER = 33.5088
MEAN_ANOMALY   = 326.6077

EPHEMERIS_TYPE = 0
CLASSIFICATION_TYPE = U
NORAD_CAT_ID   = 67770
ELEMENT_SET_NO = 999
REV_AT_EPOCH   = 414
BSTAR          = .72168E-3
MEAN_MOTION_DOT = .25169E-3
MEAN_MOTION_DDOT = 0

CCSDS_OMM_VERS = 2.0
CREATION_DATE  = 
ORIGINATOR     = 

OBJECT_NAME    = KUIPER-00199
OBJECT_ID      = 2026-030H
CENTER_NAME    = EARTH
REF_FRAME      = TEME
TIME_SYSTEM    = UTC
MEAN_ELEMENT_THEORY = SGP/SGP4

EPOCH          = 2026-03-03T11:10:41.261376
MEAN_MOTION    = 15.34066195
ECCENTRICITY   = .0010132
INCLINATION    = 51.8796
RA_OF_ASC_NODE = 249.3471
ARG_OF_PERICENTER = 42.9652
MEAN_ANOMALY   = 317.2123

EPHEMERIS_TYPE = 0
CLASSIFICATION_TYPE = U
NORAD_CAT_ID   = 67771
ELEMENT_SET_NO = 999
REV_AT_EPOCH   = 413
BSTAR          = .88739E-3
MEAN_MOTION_DOT = .29475E-3
MEAN_MOTION_DDOT = 0

CCSDS_OMM_VERS = 2.0
CREATION_DATE  = 
ORIGINATOR     = 

OBJECT_NAME    = KUIPER-00200
OBJECT_ID      = 2026-030J
CENTER_NAME    = EARTH
REF_FRAME      = TEME
TIME_SYSTEM    = UTC
MEAN_ELEMENT_THEORY = SGP/SGP4

EPOCH          = 2026-03-03T11:58:54.833664
MEAN_MOTION    = 15.36730849
ECCENTRICITY   = .0001528
INCLINATION    = 51.8806
RA_OF_ASC_NODE = 248.8325
ARG_OF_PERICENTER = 206.6793
MEAN_ANOMALY   = 153.4115

EPHEMERIS_TYPE = 0
CLASSIFICATION_TYPE = U
NORAD_CAT_ID   = 67772
ELEMENT_SET_NO = 999
REV_AT_EPOCH   = 414
BSTAR          = .73556E-3
MEAN_MOTION_DOT = .2651E-3
MEAN_MOTION_DDOT = 0

CCSDS_OMM_VERS = 2.0
CREATION_DATE  = 
ORIGINATOR     = 

OBJECT_NAME    = KUIPER-00203
OBJECT_ID      = 2026-030K
CENTER_NAME    = EARTH
REF_FRAME      = TEME
TIME_SYSTEM    = UTC
MEAN_ELEMENT_THEORY = SGP/SGP4

EPOCH          = 2026-03-03T12:00:00.998784
MEAN_MOTION    = 15.26119019
ECCENTRICITY   = .001211
INCLINATION    = 51.8801
RA_OF_ASC_NODE = 249.3101
ARG_OF_PERICENTER = 43.2038
MEAN_ANOMALY   = 68.6823

EPHEMERIS_TYPE = 0
CLASSIFICATION_TYPE = U
NORAD_CAT_ID   = 67773
ELEMENT_SET_NO = 999
REV_AT_EPOCH   = 270
BSTAR          = -.58843E-1
MEAN_MOTION_DOT = -.1401736E-1
MEAN_MOTION_DDOT = 0

CCSDS_OMM_VERS = 2.0
CREATION_DATE  = 
ORIGINATOR     = 

OBJECT_NAME    = KUIPER-00205
OBJECT_ID      = 2026-030L
CENTER_NAME    = EARTH
REF_FRAME      = TEME
TIME_SYSTEM    = UTC
MEAN_ELEMENT_THEORY = SGP/SGP4

EPOCH          = 2026-03-03T12:10:47.516160
MEAN_MOTION    = 15.36073162
ECCENTRICITY   = .0002448
INCLINATION    = 51.8806
RA_OF_ASC_NODE = 248.8845
ARG_OF_PERICENTER = 3.3789
MEAN_ANOMALY   = 356.7213

EPHEMERIS_TYPE = 0
CLASSIFICATION_TYPE = U
NORAD_CAT_ID   = 67774
ELEMENT_SET_NO = 999
REV_AT_EPOCH   = 414
BSTAR          = .7274E-3
MEAN_MOTION_DOT = .25655E-3
MEAN_MOTION_DDOT = 0

CCSDS_OMM_VERS = 2.0
CREATION_DATE  = 
ORIGINATOR     = 

OBJECT_NAME    = KUIPER-00208
OBJECT_ID      = 2026-030M
CENTER_NAME    = EARTH
REF_FRAME      = TEME
TIME_SYSTEM    = UTC
MEAN_ELEMENT_THEORY = SGP/SGP4

EPOCH          = 2026-03-03T11:26:29.181696
MEAN_MOTION    = 15.32805833
ECCENTRICITY   = .001373
INCLINATION    = 51.8822
RA_OF_ASC_NODE = 249.4249
ARG_OF_PERICENTER = 46.8876
MEAN_ANOMALY   = 313.3255

EPHEMERIS_TYPE = 0
CLASSIFICATION_TYPE = U
NORAD_CAT_ID   = 67775
ELEMENT_SET_NO = 999
REV_AT_EPOCH   = 413
BSTAR          = .96718E-3
MEAN_MOTION_DOT = .3094E-3
MEAN_MOTION_DDOT = 0

CCSDS_OMM_VERS = 2.0
CREATION_DATE  = 
ORIGINATOR     = 

OBJECT_NAME    = KUIPER-00209
OBJECT_ID      = 2026-030N
CENTER_NAME    = EARTH
REF_FRAME      = TEME
TIME_SYSTEM    = UTC
MEAN_ELEMENT_THEORY = SGP/SGP4

EPOCH          = 2026-03-03T11:31:17.828544
MEAN_MOTION    = 15.31356711
ECCENTRICITY   = .0012916
INCLINATION    = 51.8814
RA_OF_ASC_NODE = 249.4443
ARG_OF_PERICENTER = 48.4746
MEAN_ANOMALY   = 311.7344

EPHEMERIS_TYPE = 0
CLASSIFICATION_TYPE = U
NORAD_CAT_ID   = 67776
ELEMENT_SET_NO = 999
REV_AT_EPOCH   = 413
BSTAR          = -.90756E-4
MEAN_MOTION_DOT = -.3168E-4
MEAN_MOTION_DDOT = 0

CCSDS_OMM_VERS = 2.0
CREATION_DATE  = 
ORIGINATOR     = 

OBJECT_NAME    = KUIPER-00213
OBJECT_ID      = 2026-030P
CENTER_NAME    = EARTH
REF_FRAME      = TEME
TIME_SYSTEM    = UTC
MEAN_ELEMENT_THEORY = SGP/SGP4

EPOCH          = 2026-03-03T11:27:21.433824
MEAN_MOTION    = 15.32466040
ECCENTRICITY   = .0014926
INCLINATION    = 51.8790
RA_OF_ASC_NODE = 249.4203
ARG_OF_PERICENTER = 46.5925
MEAN_ANOMALY   = 313.6300

EPHEMERIS_TYPE = 0
CLASSIFICATION_TYPE = U
NORAD_CAT_ID   = 67777
ELEMENT_SET_NO = 999
REV_AT_EPOCH   = 413
BSTAR          = .67164E-3
MEAN_MOTION_DOT = .21123E-3
MEAN_MOTION_DDOT = 0

